[{"OBJECT_NAME":"ONEWEB-0171","OBJECT_ID":"2021-025AE","EPOCH":"2026-03-02T18:00:45.007488","MEAN_MOTION":13.1347213,"ECCENTRICITY":0.00018,"INCLINATION":87.9037,"RA_OF_ASC_NODE":341.4017,"ARG_OF_PERICENTER":82.5645,"MEAN_ANOMALY":277.5688,"EPHEMERIS_TYPE":0,"CLASSIFICATION_TYPE":"U","NORAD_CAT_ID":48070,"ELEMENT_SET_NO":999,"REV_AT_EPOCH":23964,"BSTAR":0.00036775,"MEAN_MOTION_DOT":1.47e-6,"MEAN_MOTION_DDOT":0},{"OBJECT_NAME":"ONEWEB-0172","OBJECT_ID":"2021-025AF","EPOCH":"2026-03-02T19:21:12.762144","MEAN_MOTION":13.13470047,"ECCENTRICITY":0.0001901,"INCLINATION":87.904,"RA_OF_ASC_NODE":341.3779,"ARG_OF_PERICENTER":82.535,"MEAN_ANOMALY":277.5995,"EPHEMERIS_TYPE":0,"CLASSIFICATION_TYPE":"U","NORAD_CAT_ID":48071,"ELEMENT_SET_NO":999,"REV_AT_EPOCH":24054,"BSTAR":-0.0010186,"MEAN_MOTION_DOT":-3.59e-6,"MEAN_MOTION_DDOT":0},{"OBJECT_NAME":"ONEWEB-0174","OBJECT_ID":"2021-025AG","EPOCH":"2026-03-02T18:54:23.779008","MEAN_MOTION":13.13468632,"ECCENTRICITY":0.0001871,"INCLINATION":87.9041,"RA_OF_ASC_NODE":341.3829,"ARG_OF_PERICENTER":74.5245,"MEAN_ANOMALY":285.6091,"EPHEMERIS_TYPE":0,"CLASSIFICATION_TYPE":"U","NORAD_CAT_ID":48072,"ELEMENT_SET_NO":999,"REV_AT_EPOCH":23986,"BSTAR":-0.00033799,"MEAN_MOTION_DOT":-1.11e-6,"MEAN_MOTION_DDOT":0},{"OBJECT_NAME":"ONEWEB-0175","OBJECT_ID":"2021-025AH","EPOCH":"2026-03-02T19:38:16.797408","MEAN_MOTION":13.13469364,"ECCENTRICITY":0.0001803,"INCLINATION":87.9046,"RA_OF_ASC_NODE":341.3518,"ARG_OF_PERICENTER":90.0942,"MEAN_ANOMALY":270.0393,"EPHEMERIS_TYPE":0,"CLASSIFICATION_TYPE":"U","NORAD_CAT_ID":48073,"ELEMENT_SET_NO":999,"REV_AT_EPOCH":23952,"BSTAR":-5.7553e-5,"MEAN_MOTION_DOT":-8.0e-8,"MEAN_MOTION_DDOT":0},{"OBJECT_NAME":"ONEWEB-0177","OBJECT_ID":"2021-025AJ","EPOCH":"2026-03-02T18:05:38.736384","MEAN_MOTION":13.13469421,"ECCENTRICITY":0.0001986,"INCLINATION":87.905,"RA_OF_ASC_NODE":341.3856,"ARG_OF_PERICENTER":76.2133,"MEAN_ANOMALY":283.9217,"EPHEMERIS_TYPE":0,"CLASSIFICATION_TYPE":"U","NORAD_CAT_ID":48074,"ELEMENT_SET_NO":999,"REV_AT_EPOCH":23970,"BSTAR":0.00064352,"MEAN_MOTION_DOT":2.48e-6,"MEAN_MOTION_DDOT":0},{"OBJECT_NAME":"ONEWEB-0178","OBJECT_ID":"2021-025AK","EPOCH":"2026-03-02T18:32:39.927840","MEAN_MOTION":13.13469198,"ECCENTRICITY":0.0001925,"INCLINATION":87.9033,"RA_OF_ASC_NODE":341.4103,"ARG_OF_PERICENTER":84.3563,"MEAN_ANOMALY":275.7785,"EPHEMERIS_TYPE":0,"CLASSIFICATION_TYPE":"U","NORAD_CAT_ID":48075,"ELEMENT_SET_NO":999,"REV_AT_EPOCH":23975,"BSTAR":0.00064822,"MEAN_MOTION_DOT":2.49e-6,"MEAN_MOTION_DDOT":0},{"OBJECT_NAME":"ONEWEB-0108","OBJECT_ID":"2021-025AL","EPOCH":"2026-03-02T19:23:38.590656","MEAN_MOTION":13.1346897,"ECCENTRICITY":0.0001613,"INCLINATION":87.9047,"RA_OF_ASC_NODE":341.3632,"ARG_OF_PERICENTER":72.3377,"MEAN_ANOMALY":287.7928,"EPHEMERIS_TYPE":0,"CLASSIFICATION_TYPE":"U","NORAD_CAT_ID":48076,"ELEMENT_SET_NO":999,"REV_AT_EPOCH":23968,"BSTAR":-0.0007235,"MEAN_MOTION_DOT":-2.51e-6,"MEAN_MOTION_DDOT":0},{"OBJECT_NAME":"ONEWEB-0169","OBJECT_ID":"2021-025AM","EPOCH":"2026-03-02T18:20:15.986688","MEAN_MOTION":13.13468741,"ECCENTRICITY":0.0001647,"INCLINATION":87.9041,"RA_OF_ASC_NODE":341.3882,"ARG_OF_PERICENTER":74.3023,"MEAN_ANOMALY":285.8287,"EPHEMERIS_TYPE":0,"CLASSIFICATION_TYPE":"U","NORAD_CAT_ID":48077,"ELEMENT_SET_NO":999,"REV_AT_EPOCH":23833,"BSTAR":0.00082949,"MEAN_MOTION_DOT":3.16e-6,"MEAN_MOTION_DDOT":0},{"OBJECT_NAME":"ONEWEB-0176","OBJECT_ID":"2021-031A","EPOCH":"2026-03-02T16:33:53.731872","MEAN_MOTION":13.14501035,"ECCENTRICITY":0.0001712,"INCLINATION":87.9001,"RA_OF_ASC_NODE":310.9468,"ARG_OF_PERICENTER":82.559,"MEAN_ANOMALY":277.5734,"EPHEMERIS_TYPE":0,"CLASSIFICATION_TYPE":"U","NORAD_CAT_ID":48210,"ELEMENT_SET_NO":999,"REV_AT_EPOCH":23432,"BSTAR":0.00035798,"MEAN_MOTION_DOT":1.45e-6,"MEAN_MOTION_DDOT":0},{"OBJECT_NAME":"ONEWEB-0184","OBJECT_ID":"2021-031B","EPOCH":"2026-03-02T17:44:40.987392","MEAN_MOTION":13.1450207,"ECCENTRICITY":0.000204,"INCLINATION":87.9009,"RA_OF_ASC_NODE":310.9265,"ARG_OF_PERICENTER":105.5023,"MEAN_ANOMALY":254.6332,"EPHEMERIS_TYPE":0,"CLASSIFICATION_TYPE":"U","NORAD_CAT_ID":48211,"ELEMENT_SET_NO":999,"REV_AT_EPOCH":23430,"BSTAR":0.00021839,"MEAN_MOTION_DOT":9.4e-7,"MEAN_MOTION_DDOT":0},{"OBJECT_NAME":"ONEWEB-0179","OBJECT_ID":"2021-031C","EPOCH":"2026-03-02T17:02:26.366496","MEAN_MOTION":13.14502087,"ECCENTRICITY":0.0001843,"INCLINATION":87.9004,"RA_OF_ASC_NODE":310.9352,"ARG_OF_PERICENTER":74.0429,"MEAN_ANOMALY":286.0904,"EPHEMERIS_TYPE":0,"CLASSIFICATION_TYPE":"U","NORAD_CAT_ID":48212,"ELEMENT_SET_NO":999,"REV_AT_EPOCH":23434,"BSTAR":-0.00041488,"MEAN_MOTION_DOT":-1.41e-6,"MEAN_MOTION_DDOT":0},{"OBJECT_NAME":"ONEWEB-0180","OBJECT_ID":"2021-031D","EPOCH":"2026-03-02T17:49:15.132864","MEAN_MOTION":13.14501692,"ECCENTRICITY":0.0001974,"INCLINATION":87.9004,"RA_OF_ASC_NODE":310.9298,"ARG_OF_PERICENTER":82.1263,"MEAN_ANOMALY":278.009,"EPHEMERIS_TYPE":0,"CLASSIFICATION_TYPE":"U","NORAD_CAT_ID":48213,"ELEMENT_SET_NO":999,"REV_AT_EPOCH":23423,"BSTAR":0.00020359,"MEAN_MOTION_DOT":8.8e-7,"MEAN_MOTION_DDOT":0},{"OBJECT_NAME":"ONEWEB-0218","OBJECT_ID":"2021-031E","EPOCH":"2026-03-02T16:31:37.034976","MEAN_MOTION":13.14501534,"ECCENTRICITY":0.0002273,"INCLINATION":87.9004,"RA_OF_ASC_NODE":310.94,"ARG_OF_PERICENTER":99.761,"MEAN_ANOMALY":260.3776,"EPHEMERIS_TYPE":0,"CLASSIFICATION_TYPE":"U","NORAD_CAT_ID":48214,"ELEMENT_SET_NO":999,"REV_AT_EPOCH":23438,"BSTAR":0.00050665,"MEAN_MOTION_DOT":2.01e-6,"MEAN_MOTION_DDOT":0},{"OBJECT_NAME":"ONEWEB-0209","OBJECT_ID":"2021-031F","EPOCH":"2026-03-02T18:05:13.968960","MEAN_MOTION":13.14501507,"ECCENTRICITY":0.000186,"INCLINATION":87.8992,"RA_OF_ASC_NODE":310.9546,"ARG_OF_PERICENTER":77.3065,"MEAN_ANOMALY":282.8272,"EPHEMERIS_TYPE":0,"CLASSIFICATION_TYPE":"U","NORAD_CAT_ID":48215,"ELEMENT_SET_NO":999,"REV_AT_EPOCH":23439,"BSTAR":0.00072952,"MEAN_MOTION_DOT":2.83e-6,"MEAN_MOTION_DDOT":0},{"OBJECT_NAME":"ONEWEB-0198","OBJECT_ID":"2021-031G","EPOCH":"2026-03-02T17:42:35.916480","MEAN_MOTION":13.14501718,"ECCENTRICITY":0.0002087,"INCLINATION":87.8994,"RA_OF_ASC_NODE":310.9565,"ARG_OF_PERICENTER":85.6673,"MEAN_ANOMALY":274.4695,"EPHEMERIS_TYPE":0,"CLASSIFICATION_TYPE":"U","NORAD_CAT_ID":48216,"ELEMENT_SET_NO":999,"REV_AT_EPOCH":23450,"BSTAR":5.3709e-5,"MEAN_MOTION_DOT":3.3e-7,"MEAN_MOTION_DDOT":0},{"OBJECT_NAME":"ONEWEB-0189","OBJECT_ID":"2021-031H","EPOCH":"2026-03-02T18:00:40.161312","MEAN_MOTION":13.14501388,"ECCENTRICITY":0.0001996,"INCLINATION":87.8999,"RA_OF_ASC_NODE":310.9308,"ARG_OF_PERICENTER":85.5171,"MEAN_ANOMALY":274.6187,"EPHEMERIS_TYPE":0,"CLASSIFICATION_TYPE":"U","NORAD_CAT_ID":48217,"ELEMENT_SET_NO":999,"REV_AT_EPOCH":23424,"BSTAR":0.00068655,"MEAN_MOTION_DOT":2.67e-6,"MEAN_MOTION_DDOT":0},{"OBJECT_NAME":"ONEWEB-0196","OBJECT_ID":"2021-031J","EPOCH":"2026-03-02T17:28:41.817792","MEAN_MOTION":13.14502338,"ECCENTRICITY":0.000184,"INCLINATION":87.8998,"RA_OF_ASC_NODE":310.9457,"ARG_OF_PERICENTER":81.0604,"MEAN_ANOMALY":279.0734,"EPHEMERIS_TYPE":0,"CLASSIFICATION_TYPE":"U","NORAD_CAT_ID":48218,"ELEMENT_SET_NO":999,"REV_AT_EPOCH":23424,"BSTAR":-0.00017027,"MEAN_MOTION_DOT":-5.0e-7,"MEAN_MOTION_DDOT":0}]
