ONEWEB-0171             
1 48070U 21025AE  26061.75052092  .00000147  00000+0  36775-3 0  9996
2 48070  87.9037 341.4017 0001800  82.5645 277.5688 13.13472130239646
ONEWEB-0172             
1 48071U 21025AF  26061.80639771 -.00000359  00000+0 -10186-2 0  9992
2 48071  87.9040 341.3779 0001901  82.5350 277.5995 13.13470047240547
ONEWEB-0174             
1 48072U 21025AG  26061.78777522 -.00000111  00000+0 -33799-3 0  9999
2 48072  87.9041 341.3829 0001871  74.5245 285.6091 13.13468632239862
ONEWEB-0175             
1 48073U 21025AH  26061.81824997 -.00000008  00000+0 -57553-4 0  9993
2 48073  87.9046 341.3518 0001803  90.0942 270.0393 13.13469364239524
ONEWEB-0177             
1 48074U 21025AJ  26061.75392056  .00000248  00000+0  64352-3 0  9991
2 48074  87.9050 341.3856 0001986  76.2133 283.9217 13.13469421239707
ONEWEB-0178             
1 48075U 21025AK  26061.77268435  .00000249  00000+0  64822-3 0  9990
2 48075  87.9033 341.4103 0001925  84.3563 275.7785 13.13469198239750
ONEWEB-0108             
1 48076U 21025AL  26061.80808554 -.00000251  00000+0 -72350-3 0  9997
2 48076  87.9047 341.3632 0001613  72.3377 287.7928 13.13468970239687
ONEWEB-0169             
1 48077U 21025AM  26061.76407392  .00000316  00000+0  82949-3 0  9993
2 48077  87.9041 341.3882 0001647  74.3023 285.8287 13.13468741238330
ONEWEB-0176             
1 48210U 21031A   26061.69020523  .00000145  00000+0  35798-3 0  9998
2 48210  87.9001 310.9468 0001712  82.5590 277.5734 13.14501035234325
ONEWEB-0184             
1 48211U 21031B   26061.73936328  .00000094  00000+0  21839-3 0  9997
2 48211  87.9009 310.9265 0002040 105.5023 254.6332 13.14502070234309
ONEWEB-0179             
1 48212U 21031C   26061.71002739 -.00000141  00000+0 -41488-3 0  9993
2 48212  87.9004 310.9352 0001843  74.0429 286.0904 13.14502087234348
ONEWEB-0180             
1 48213U 21031D   26061.74253626  .00000088  00000+0  20359-3 0  9992
2 48213  87.9004 310.9298 0001974  82.1263 278.0090 13.14501692234235
ONEWEB-0218             
1 48214U 21031E   26061.68862309  .00000201  00000+0  50665-3 0  9990
2 48214  87.9004 310.9400 0002273  99.7610 260.3776 13.14501534234380
ONEWEB-0209             
1 48215U 21031F   26061.75363390  .00000283  00000+0  72952-3 0  9998
2 48215  87.8992 310.9546 0001860  77.3065 282.8272 13.14501507234395
ONEWEB-0198             
1 48216U 21031G   26061.73791570  .00000033  00000+0  53709-4 0  9995
2 48216  87.8994 310.9565 0002087  85.6673 274.4695 13.14501718234501
ONEWEB-0189             
1 48217U 21031H   26061.75046483  .00000267  00000+0  68655-3 0  9998
2 48217  87.8999 310.9308 0001996  85.5171 274.6187 13.14501388234244
ONEWEB-0196             
1 48218U 21031J   26061.72826178 -.00000050  00000+0 -17027-3 0  9992
2 48218  87.8998 310.9457 0001840  81.0604 279.0734 13.14502338234242
